     2.100          NAVIGATION                              RINEX VERSION / TYPE
fic2rin                                 07/24/2011 01:35:20 PGM / RUN BY / DATE
                                                            END OF HEADER
27 11  7 23 18  0  0.0  .287561211735D-03  .375166564481D-11  .000000000000D+00
     .170000000000D+03 -.514375000000D+02  .425482008748D-08  .445667313547D+00
    -.288709998131D-05  .215824057814D-01  .701844692230D-05  .515364956474D+04
     .583200000000D+06 -.145286321640D-06  .122348206950D+01 -.279396772385D-06
     .981164781131D+00  .262437500000D+03 -.122606165489D+01 -.832427531091D-08
    -.375015620906D-10  .100000000000D+01  .164500000000D+04  .000000000000D+00
     .240000000000D+01  .000000000000D+00 -.419095158577D-08  .170000000000D+03
     .576006000000D+06  .400000000000D+01
28 11  7 23 18  0  0.0  .540586188436D-04  .284217094304D-11  .000000000000D+00
     .710000000000D+02 -.294062500000D+02  .432410868791D-08  .154872511350D+01
    -.175274908543D-05  .170443415409D-01  .800006091595D-05  .515370266151D+04
     .583200000000D+06 -.316649675369D-06  .235812695962D+01 -.298023223877D-06
     .975236508961D+00  .238281250000D+03 -.188448786389D+01 -.795425989828D-08
     .293940815243D-09  .100000000000D+01  .164500000000D+04  .000000000000D+00
     .240000000000D+01  .000000000000D+00 -.102445483208D-07  .710000000000D+02
     .576006000000D+06  .400000000000D+01
29 11  7 23 18  0  0.0  .225533731282D-03  .306954461848D-11  .000000000000D+00
     .113000000000D+03 -.229687500000D+02  .461412076808D-08 -.261558305093D+01
    -.127777457237D-05  .245056883432D-02  .696256756783D-05  .515375695992D+04
     .583200000000D+06 -.558793544769D-08 -.288177263004D+01  .372529029846D-07
     .962237895196D+00  .246031250000D+03 -.117266686685D+01 -.797247494273D-08
    -.710743891050D-10  .100000000000D+01  .164500000000D+04  .000000000000D+00
     .240000000000D+01  .000000000000D+00 -.931322574615D-08  .113000000000D+03
     .576006000000D+06  .400000000000D+01
31 11  7 23 18  0  0.0  .115427654237D-03  .579802872380D-11  .000000000000D+00
     .800000000000D+01 -.413125000000D+02  .414160108574D-08 -.192815598026D+01
    -.199489295483D-05  .759484129958D-02  .685080885887D-05  .515370473480D+04
     .583200000000D+06 -.176951289177D-06  .127910771983D+01  .139698386192D-06
     .979838977975D+00  .260531250000D+03 -.951999048593D+00 -.785639867911D-08
     .228580949885D-10  .100000000000D+01  .164500000000D+04  .000000000000D+00
     .240000000000D+01  .000000000000D+00 -.130385160446D-07  .800000000000D+01
     .576006000000D+06  .400000000000D+01
32 11  7 23 18  0  0.0 -.297101680189D-03 -.704858393874D-11  .000000000000D+00
     .129000000000D+03  .687812500000D+02  .456911889357D-08 -.122568335891D+01
     .360049307346D-05  .121629732894D-01  .691600143909D-05  .515362195396D+04
     .583200000000D+06 -.184401869774D-06 -.739247470659D+00  .111758708954D-07
     .954297626441D+00  .247625000000D+03 -.763693185789D+00 -.818141221723D-08
     .213937482783D-09  .100000000000D+01  .164500000000D+04  .000000000000D+00
     .240000000000D+01  .000000000000D+00 -.279396772385D-08  .129000000000D+03
     .576006000000D+06  .400000000000D+01
11 11  7 23 18  0  0.0 -.170610845089D-03 -.329691829393D-11  .000000000000D+00
     .103000000000D+03 -.521875000000D+01  .608775357937D-08 -.176160979650D+01
    -.301748514175D-06  .119536897400D-01  .770017504692D-05  .515366436958D+04
     .583200000000D+06  .257045030594D-06 -.213088747490D+01 -.949949026108D-07
     .887840340468D+00  .190375000000D+03  .946578878593D+00 -.853678416275D-08
    -.232866842696D-09  .100000000000D+01  .164500000000D+04  .000000000000D+00
     .340000000000D+01  .000000000000D+00 -.116415321827D-07  .103000000000D+03
     .576036000000D+06  .400000000000D+01
17 11  7 23 18  0  0.0  .181530136615D-03 -.113686837722D-11  .000000000000D+00
     .850000000000D+02 -.255000000000D+02  .474984070707D-08  .835139142372D+00
    -.121258199215D-05  .640909909271D-02  .691041350365D-05  .515378135300D+04
     .583200000000D+06 -.540167093277D-07 -.289017711488D+01  .782310962677D-07
     .961784203338D+00  .248500000000D+03 -.239158968194D+01 -.813855328913D-08
    -.164649715464D-09  .100000000000D+01  .164500000000D+04  .000000000000D+00
     .240000000000D+01  .000000000000D+00 -.107102096081D-07  .850000000000D+02
     .576036000000D+06  .400000000000D+01
20 11  7 23 18  0  0.0  .509782694280D-04  .341060513165D-12  .000000000000D+00
     .104000000000D+03  .778125000000D+02  .491306179160D-08  .269235499484D+01
     .404380261898D-05  .447896413971D-02  .708550214767D-05  .515362614441D+04
     .583200000000D+06  .894069671631D-07 -.865250727520D+00  .689178705215D-07
     .932512314149D+00  .227250000000D+03  .128555373480D+01 -.817319758934D-08
     .807176479283D-10  .100000000000D+01  .164500000000D+04  .000000000000D+00
     .240000000000D+01  .000000000000D+00 -.745058059692D-08  .104000000000D+03
     .576036000000D+06  .400000000000D+01
22 11  7 23 18  0  0.0  .146020669490D-03 -.227373675443D-12  .000000000000D+00
     .820000000000D+02  .641875000000D+02  .511342728049D-08  .149379782222D+01
     .336766242981D-05  .588219088968D-02  .699982047081D-05  .515370731163D+04
     .583200000000D+06 -.137835741043D-06 -.807331135325D+00 -.670552253723D-07
     .930036048809D+00  .227468750000D+03 -.198273598795D+01 -.840963600938D-08
     .135719938995D-10  .100000000000D+01  .164500000000D+04  .000000000000D+00
     .340000000000D+01  .000000000000D+00 -.167638063431D-07  .820000000000D+02
     .576036000000D+06  .400000000000D+01
22 11  7 23 17 59 44.0  .146015081555D-03 -.341060513165D-12  .000000000000D+00
     .230000000000D+02  .641875000000D+02  .511342728049D-08  .149146395586D+01
     .336766242981D-05  .588219147176D-02  .699982047081D-05  .515370731544D+04
     .583184000000D+06 -.137835741043D-06 -.807330983182D+00 -.670552253723D-07
     .930036047346D+00  .227468750000D+03 -.198273586214D+01 -.840963600938D-08
     .132148361653D-10  .100000000000D+01  .164500000000D+04  .000000000000D+00
     .240000000000D+01  .000000000000D+00 -.167638063431D-07  .230000000000D+02
     .579096000000D+06  .400000000000D+01
 1 11  7 23 17 59 44.0 -.961450859904D-05  .125055521494D-11  .000000000000D+00
     .140000000000D+02  .943750000000D+01  .434196657462D-08  .852346527563D+00
     .398606061935D-06  .255171558820D-03  .943243503571D-05  .518036079407D+04
     .583184000000D+06  .577419996262D-07 -.188408799864D+01 -.335276126862D-07
     .960047324590D+00  .192343750000D+03  .246962448550D+01 -.766103339851D-08
    -.286440502825D-09  .100000000000D+01  .164500000000D+04  .000000000000D+00
     .240000000000D+01  .630000000000D+02  .791624188423D-08  .140000000000D+02
     .580446000000D+06  .400000000000D+01
 1 11  7 23 19 59 44.0 -.960566103458D-05  .125055521494D-11  .000000000000D+00
     .150000000000D+02  .123437500000D+02  .432768026525D-08  .188470969640D+01
     .655651092529D-06  .255475053564D-03  .922381877899D-05  .518036169624D+04
     .590384000000D+06  .279396772385D-07 -.188414273957D+01  .242143869400D-07
     .960045330633D+00  .196093750000D+03  .247129387837D+01 -.761245994666D-08
    -.318941856637D-09  .100000000000D+01  .164500000000D+04  .000000000000D+00
     .240000000000D+01  .630000000000D+02  .791624188423D-08  .150000000000D+02
     .583206000000D+06  .400000000000D+01
22 11  7 23 19 59 44.0  .146012287587D-03 -.341060513165D-12  .000000000000D+00
     .240000000000D+02  .664375000000D+02  .502342353147D-08  .254185638750D+01
     .345334410667D-05  .588261254597D-02  .752694904804D-05  .515370471191D+04
     .590384000000D+06  .707805156708D-07 -.807390698035D+00 -.596046447754D-07
     .930037105036D+00  .217250000000D+03 -.198296294653D+01 -.819605568433D-08
     .110718897601D-10  .100000000000D+01  .164500000000D+04  .000000000000D+00
     .240000000000D+01  .000000000000D+00 -.167638063431D-07  .240000000000D+02
     .583206000000D+06  .400000000000D+01
 2 11  7 23 20  0  0.0  .347991939634D-03  .181898940355D-11  .000000000000D+00
     .580000000000D+02  .100000000000D+02  .506949687918D-08  .622290695854D+00
     .564381480217D-06  .103732742136D-01  .864081084728D-05  .515378601837D+04
     .590400000000D+06  .165775418282D-06 -.189065644230D+01  .178813934326D-06
     .938679299441D+00  .200062500000D+03 -.295998998676D+01 -.826713007344D-08
    -.382158775590D-09  .100000000000D+01  .164500000000D+04  .000000000000D+00
     .240000000000D+01  .000000000000D+00 -.172294676304D-07  .580000000000D+02
     .583206000000D+06  .400000000000D+01
 3 11  7 23 20  0  0.0  .745597761124D-03  .488853402203D-11  .000000000000D+00
     .360000000000D+02 -.185625000000D+02  .566166440248D-08  .789100313127D+00
    -.730156898499D-06  .145209877519D-01  .681728124619D-05  .515366114426D+04
     .590400000000D+06 -.141561031342D-06 -.304933350256D+01  .130385160446D-06
     .929490301368D+00  .235500000000D+03  .110921860295D+01 -.879000899630D-08
    -.600024993449D-10  .100000000000D+01  .164500000000D+04  .000000000000D+00
     .240000000000D+01  .000000000000D+00 -.465661287308D-08  .360000000000D+02
     .583206000000D+06  .400000000000D+01
 4 11  7 23 20  0  0.0  .180666800588D-03  .109139364213D-10  .000000000000D+00
     .420000000000D+02  .896875000000D+01  .494449167221D-08 -.243699084275D+01
     .398606061935D-06  .962306465954D-02  .900588929653D-05  .515367872238D+04
     .590400000000D+06  .115483999252D-06 -.187335956895D+01 -.106170773506D-06
     .937757700549D+00  .193093750000D+03  .739766707098D+00 -.802354849872D-08
    -.225723688012D-09  .100000000000D+01  .164500000000D+04  .000000000000D+00
     .240000000000D+01  .000000000000D+00 -.651925802231D-08  .420000000000D+02
     .583206000000D+06  .400000000000D+01
